[{"OBJECT_NAME":"STARLINK-31124","OBJECT_ID":"2023-211H","EPOCH":"2026-03-09T11:14:08.500416","MEAN_MOTION":15.27571582,"ECCENTRICITY":0.00023599,"INCLINATION":43.0037,"RA_OF_ASC_NODE":86.2802,"ARG_OF_PERICENTER":269.4061,"MEAN_ANOMALY":90.6521,"EPHEMERIS_TYPE":0,"CLASSIFICATION_TYPE":"U","NORAD_CAT_ID":58674,"ELEMENT_SET_NO":999,"REV_AT_EPOCH":12243,"BSTAR":0.00027032682,"MEAN_MOTION_DOT":7.182e-5,"MEAN_MOTION_DDOT":0},{"OBJECT_NAME":"CZ-6A DEB","OBJECT_ID":"2024-140AB","EPOCH":"2026-03-09T12:39:40.872096","MEAN_MOTION":14.79496195,"ECCENTRICITY":0.02124268,"INCLINATION":89.014,"RA_OF_ASC_NODE":280.9531,"ARG_OF_PERICENTER":168.3647,"MEAN_ANOMALY":192.2602,"EPHEMERIS_TYPE":0,"CLASSIFICATION_TYPE":"U","NORAD_CAT_ID":60626,"ELEMENT_SET_NO":999,"REV_AT_EPOCH":8539,"BSTAR":0.00037700721,"MEAN_MOTION_DOT":4.17e-5,"MEAN_MOTION_DDOT":0}]
